OBJECT_NAME,OBJECT_ID,EPOCH,MEAN_MOTION,ECCENTRICITY,INCLINATION,RA_OF_ASC_NODE,ARG_OF_PERICENTER,MEAN_ANOMALY,EPHEMERIS_TYPE,CLASSIFICATION_TYPE,NORAD_CAT_ID,ELEMENT_SET_NO,REV_AT_EPOCH,BSTAR,MEAN_MOTION_DOT,MEAN_MOTION_DDOT
ONEWEB-0211,2021-045A,2026-06-25T04:09:09.863712,13.16196718,.00022016,87.9004,257.4892,118.2813,241.8540,0,U,48767,999,24549,-.34508981E-3,-.118E-5,0
ONEWEB-0223,2021-045B,2026-06-25T06:07:41.805408,13.15550021,.00018893,87.9010,257.5837,112.1464,247.9867,0,U,48768,999,24546,-.38357116E-3,-.132E-5,0
ONEWEB-0230,2021-045C,2026-06-25T05:26:37.596192,13.15548882,.00020574,87.8999,257.6019,95.8585,264.2780,0,U,48769,999,24572,.3615534E-3,.149E-5,0
ONEWEB-0237,2021-045D,2026-06-25T05:10:39.014976,13.15547690,.00018063,87.9000,257.6060,105.3171,254.8159,0,U,48770,999,24544,.3978899E-3,.163E-5,0
ONEWEB-0235,2021-045E,2026-06-25T06:23:40.180992,13.15548955,.00018198,87.9007,257.5825,111.5431,248.5894,0,U,48771,999,24544,-.20411542E-3,-.64E-6,0
ONEWEB-0242,2021-045F,2026-06-25T06:14:32.074080,13.15547624,.00018324,87.9011,257.5809,101.6338,258.4998,0,U,48772,999,24548,-.25552994E-3,-.83E-6,0
ONEWEB-0241,2021-045G,2026-06-25T05:56:17.155392,13.15549175,.00020589,87.8997,257.5993,112.0075,248.1275,0,U,48773,999,24539,-.3536914E-3,-.12E-5,0
ONEWEB-0243,2021-045H,2026-06-25T06:41:54.857760,13.15549315,.00014344,87.9000,257.6064,101.8844,258.2447,0,U,48774,999,24542,.28115938E-3,.119E-5,0
ONEWEB-0222,2021-045J,2026-06-25T06:17:57.134112,13.15549155,.00020025,87.9008,257.5783,106.8495,253.2855,0,U,48775,999,24546,-.40290074E-3,-.139E-5,0
ONEWEB-0244,2021-045K,2026-06-25T05:06:05.374944,13.15548769,.00018794,87.9016,257.5832,102.7922,257.3419,0,U,48776,999,24602,.39388024E-3,.161E-5,0
ONEWEB-0247,2021-045L,2026-06-25T06:51:03.021696,13.15547399,.00013242,87.9002,257.5999,118.1410,241.9854,0,U,48777,999,24547,.14403061E-3,.67E-6,0
ONEWEB-0245,2021-045M,2026-06-25T06:44:11.982336,13.15547836,.00019687,87.9014,257.5807,105.4655,254.6693,0,U,48778,999,24544,.47217456E-3,.191E-5,0
ONEWEB-0229,2021-045N,2026-06-25T04:47:49.775424,13.15548887,.00019257,87.9005,257.5946,100.1892,259.9456,0,U,48779,999,24546,.12720179E-3,.61E-6,0
ONEWEB-0228,2021-045P,2026-06-25T05:35:56.753664,13.15547063,.00019124,87.9018,257.5811,102.0610,258.0734,0,U,48780,999,24538,-.3813648E-5,.11E-6,0
ONEWEB-0232,2021-045Q,2026-06-25T04:59:14.046144,13.15546365,.00020718,87.9015,257.5871,101.8257,258.3106,0,U,48781,999,24570,.38332093E-3,.157E-5,0
ONEWEB-0231,2021-045R,2026-06-25T06:16:48.634464,13.15549524,.00019348,87.9008,257.5891,107.3860,252.7482,0,U,48782,999,24540,-.25927351E-3,-.85E-6,0
ONEWEB-0234,2021-045S,2026-06-25T05:21:51.361632,13.15549445,.00028735,87.9008,257.5782,103.1626,256.9826,0,U,48783,999,24553,.27712066E-3,.117E-5,0
ONEWEB-0238,2021-045T,2026-06-25T05:22:15.377376,13.15548087,.00024543,87.9014,257.5731,102.4335,257.7071,0,U,48784,999,24543,.24266065E-3,.104E-5,0
ONEWEB-0240,2021-045U,2026-06-25T05:52:51.651264,13.15548503,.00020844,87.9013,257.5789,109.4091,250.7265,0,U,48785,999,24546,-.14245215E-3,-.41E-6,0
ONEWEB-0246,2021-045V,2026-06-25T05:44:52.249632,13.15549717,.00018708,87.9011,257.5842,99.7816,260.3525,0,U,48786,999,24533,-.22382582E-3,-.71E-6,0
ONEWEB-0210,2021-045W,2026-06-25T06:57:52.579296,13.15547180,.00011807,87.9008,257.5712,107.2946,252.8314,0,U,48787,999,24538,.41179368E-3,.168E-5,0
ONEWEB-0214,2021-045X,2026-06-25T05:20:54.443904,13.15549529,.00017578,87.9011,257.5814,92.9581,267.1751,0,U,48788,999,24534,.2957781E-3,.124E-5,0
ONEWEB-0221,2021-045Y,2026-06-25T05:31:11.359776,13.15548738,.000194,87.9010,257.5886,105.4023,254.7322,0,U,48789,999,24543,.20461482E-3,.9E-6,0
ONEWEB-0213,2021-045Z,2026-06-25T05:15:12.788064,13.15547590,.00017971,87.9010,257.5941,106.1687,253.9641,0,U,48790,999,24549,.37377801E-3,.154E-5,0
ONEWEB-0212,2021-045AA,2026-06-25T04:42:06.248160,13.15550381,.00020501,87.9011,257.5931,100.2030,259.9332,0,U,48791,999,24548,.94651038E-4,.48E-6,0
ONEWEB-0227,2021-045AB,2026-06-25T04:40:59.136960,13.15549176,.0002041,87.9006,257.5938,103.0653,257.0705,0,U,48792,999,24543,-.35123892E-4,0,0
ONEWEB-0226,2021-045AC,2026-06-25T06:21:21.612672,13.15546834,.00017536,87.9004,257.5845,103.0134,257.1193,0,U,48793,999,24541,-.20666254E-3,-.65E-6,0
ONEWEB-0224,2021-045AD,2026-06-25T05:28:54.299136,13.15547399,.00026965,87.9002,257.6252,115.5134,244.6276,0,U,48794,999,24533,.20093596E-3,.88E-6,0
ONEWEB-0233,2021-045AE,2026-06-25T05:35:33.024768,13.15548884,.00019308,87.9001,257.6319,109.1135,251.0205,0,U,48795,999,24535,.96699264E-4,.49E-6,0
ONEWEB-0190,2021-045AF,2026-06-25T05:17:29.550624,13.15547718,.00016084,87.9007,257.5965,118.7970,241.3322,0,U,48796,999,24542,.29258694E-3,.123E-5,0
