[{"id":"48767","name":"ONEWEB-0211","tle1":"1 48767U 21045A   26176.17303083 -.00000118  00000+0 -34509-3 0  9996","tle2":"2 48767  87.9004 257.4892 0002201 118.2813 241.8540 13.16196718245499"},{"id":"48768","name":"ONEWEB-0223","tle1":"1 48768U 21045B   26176.25534497 -.00000132  00000+0 -38357-3 0  9992","tle2":"2 48768  87.9010 257.5837 0001889 112.1464 247.9867 13.15550021245469"},{"id":"48769","name":"ONEWEB-0230","tle1":"1 48769U 21045C   26176.22682403  .00000149  00000+0  36155-3 0  9991","tle2":"2 48769  87.8999 257.6019 0002057  95.8585 264.2780 13.15548882245724"},{"id":"48770","name":"ONEWEB-0237","tle1":"1 48770U 21045D   26176.21572934  .00000163  00000+0  39789-3 0  9991","tle2":"2 48770  87.9000 257.6060 0001806 105.3171 254.8159 13.15547690245445"},{"id":"48771","name":"ONEWEB-0235","tle1":"1 48771U 21045E   26176.26643728 -.00000064  00000+0 -20412-3 0  9992","tle2":"2 48771  87.9007 257.5825 0001819 111.5431 248.5894 13.15548955245444"},{"id":"48772","name":"ONEWEB-0242","tle1":"1 48772U 21045F   26176.26009345 -.00000083  00000+0 -25553-3 0  9996","tle2":"2 48772  87.9011 257.5809 0001832 101.6338 258.4998 13.15547624245484"},{"id":"48773","name":"ONEWEB-0241","tle1":"1 48773U 21045G   26176.24742078 -.00000120  00000+0 -35369-3 0  9990","tle2":"2 48773  87.8997 257.5993 0002058 112.0075 248.1275 13.15549175245393"},{"id":"48774","name":"ONEWEB-0243","tle1":"1 48774U 21045H   26176.27910715  .00000119  00000+0  28116-3 0  9997","tle2":"2 48774  87.9000 257.6064 0001434 101.8844 258.2447 13.15549315245420"},{"id":"48775","name":"ONEWEB-0222","tle1":"1 48775U 21045J   26176.26246683 -.00000139  00000+0 -40290-3 0  9994","tle2":"2 48775  87.9008 257.5783 0002002 106.8495 253.2855 13.15549155245469"},{"id":"48776","name":"ONEWEB-0244","tle1":"1 48776U 21045K   26176.21256221  .00000161  00000+0  39388-3 0  9998","tle2":"2 48776  87.9016 257.5832 0001879 102.7922 257.3419 13.15548769246029"},{"id":"48777","name":"ONEWEB-0247","tle1":"1 48777U 21045L   26176.28545164  .00000067  00000+0  14403-3 0  9999","tle2":"2 48777  87.9002 257.5999 0001324 118.1410 241.9854 13.15547399245475"},{"id":"48778","name":"ONEWEB-0245","tle1":"1 48778U 21045M   26176.28069424  .00000191  00000+0  47217-3 0  9997","tle2":"2 48778  87.9014 257.5807 0001968 105.4655 254.6693 13.15547836245446"},{"id":"48779","name":"ONEWEB-0229","tle1":"1 48779U 21045N   26176.19988166  .00000061  00000+0  12720-3 0  9998","tle2":"2 48779  87.9005 257.5946 0001925 100.1892 259.9456 13.15548887245463"},{"id":"48780","name":"ONEWEB-0228","tle1":"1 48780U 21045P   26176.23329576  .00000011  00000+0 -38136-5 0  9996","tle2":"2 48780  87.9018 257.5811 0001912 102.0610 258.0734 13.15547063245380"},{"id":"48781","name":"ONEWEB-0232","tle1":"1 48781U 21045Q   26176.20780146  .00000157  00000+0  38332-3 0  9994","tle2":"2 48781  87.9015 257.5871 0002071 101.8257 258.3106 13.15546365245701"},{"id":"48782","name":"ONEWEB-0231","tle1":"1 48782U 21045R   26176.26167401 -.00000085  00000+0 -25927-3 0  9992","tle2":"2 48782  87.9008 257.5891 0001934 107.3860 252.7482 13.15549524245406"},{"id":"48783","name":"ONEWEB-0234","tle1":"1 48783U 21045S   26176.22351113  .00000117  00000+0  27712-3 0  9992","tle2":"2 48783  87.9008 257.5782 0002873 103.1626 256.9826 13.15549445245537"},{"id":"48784","name":"ONEWEB-0238","tle1":"1 48784U 21045T   26176.22378909  .00000104  00000+0  24266-3 0  9992","tle2":"2 48784  87.9014 257.5731 0002454 102.4335 257.7071 13.15548087245434"},{"id":"48785","name":"ONEWEB-0240","tle1":"1 48785U 21045U   26176.24504226 -.00000041  00000+0 -14245-3 0  9996","tle2":"2 48785  87.9013 257.5789 0002084 109.4091 250.7265 13.15548503245466"},{"id":"48786","name":"ONEWEB-0246","tle1":"1 48786U 21045V   26176.23949363 -.00000071  00000+0 -22383-3 0  9996","tle2":"2 48786  87.9011 257.5842 0001870  99.7816 260.3525 13.15549717245333"},{"id":"48787","name":"ONEWEB-0210","tle1":"1 48787U 21045W   26176.29019189  .00000168  00000+0  41179-3 0  9996","tle2":"2 48787  87.9008 257.5712 0001180 107.2946 252.8314 13.15547180245388"},{"id":"48788","name":"ONEWEB-0214","tle1":"1 48788U 21045X   26176.22285236  .00000124  00000+0  29578-3 0  9999","tle2":"2 48788  87.9011 257.5814 0001757  92.9581 267.1751 13.15549529245340"},{"id":"48789","name":"ONEWEB-0221","tle1":"1 48789U 21045Y   26176.22999259  .00000090  00000+0  20461-3 0  9991","tle2":"2 48789  87.9010 257.5886 0001940 105.4023 254.7322 13.15548738245431"},{"id":"48790","name":"ONEWEB-0213","tle1":"1 48790U 21045Z   26176.21889801  .00000154  00000+0  37378-3 0  9999","tle2":"2 48790  87.9010 257.5941 0001797 106.1687 253.9641 13.15547590245495"},{"id":"48791","name":"ONEWEB-0212","tle1":"1 48791U 21045AA  26176.19590565  .00000048  00000+0  94651-4 0  9993","tle2":"2 48791  87.9011 257.5931 0002050 100.2030 259.9332 13.15550381245480"},{"id":"48792","name":"ONEWEB-0227","tle1":"1 48792U 21045AB  26176.19512890  .00000000  00000+0 -35124-4 0  9998","tle2":"2 48792  87.9006 257.5938 0002041 103.0653 257.0705 13.15549176245432"},{"id":"48793","name":"ONEWEB-0226","tle1":"1 48793U 21045AC  26176.26483348 -.00000065  00000+0 -20666-3 0  9998","tle2":"2 48793  87.9004 257.5845 0001753 103.0134 257.1193 13.15546834245419"},{"id":"48794","name":"ONEWEB-0224","tle1":"1 48794U 21045AD  26176.22840624  .00000088  00000+0  20094-3 0  9997","tle2":"2 48794  87.9002 257.6252 0002696 115.5134 244.6276 13.15547399245337"},{"id":"48795","name":"ONEWEB-0233","tle1":"1 48795U 21045AE  26176.23302112  .00000049  00000+0  96699-4 0  9996","tle2":"2 48795  87.9001 257.6319 0001930 109.1135 251.0205 13.15548884245357"},{"id":"48796","name":"ONEWEB-0190","tle1":"1 48796U 21045AF  26176.22048091  .00000123  00000+0  29259-3 0  9999","tle2":"2 48796  87.9007 257.5965 0001608 118.7970 241.3322 13.15547718245420"}]